CCSDS_OMM_VERS,COMMENT,CREATION_DATE,ORIGINATOR,OBJECT_NAME,OBJECT_ID,CENTER_NAME,REF_FRAME,TIME_SYSTEM,MEAN_ELEMENT_THEORY,EPOCH,MEAN_MOTION,ECCENTRICITY,INCLINATION,RA_OF_ASC_NODE,ARG_OF_PERICENTER,MEAN_ANOMALY,EPHEMERIS_TYPE,CLASSIFICATION_TYPE,NORAD_CAT_ID,ELEMENT_SET_NO,REV_AT_EPOCH,BSTAR,MEAN_MOTION_DOT,MEAN_MOTION_DDOT,SEMIMAJOR_AXIS,PERIOD,APOAPSIS,PERIAPSIS,OBJECT_TYPE,RCS_SIZE,COUNTRY_CODE,LAUNCH_DATE,SITE,DECAY_DATE,FILE,GP_ID,TLE_LINE0,TLE_LINE1,TLE_LINE2
"2.0","GENERATED VIA SPACE-TRACK.ORG API","2009-03-03T08:21:00","18 SPCS","COSMOS 2251","1993-036A","EARTH","TEME","UTC","SGP4","2009-03-03T07:04:34.638240","14.32043159","0.00246820","74.0405","339.7007","116.4525","243.9166","0","U","22675","999","82053","-0.00000887360000","-0.00000050","0.0000000000000","7163.051","100.555","802.595","767.236","PAYLOAD","LARGE","CIS","1993-06-16","PKMTR","","680484","70152310","0 COSMOS 2251","1 22675U 93036A   09062.29484535 -.00000050  00000-0 -88736-5 0  9994","2 22675 074.0405 339.7007 0024682 116.4525 243.9166 14.32043159820530"
"2.0","GENERATED VIA SPACE-TRACK.ORG API","2009-03-03T08:21:06","18 SPCS","IRIDIUM 33","1997-051C","EARTH","TEME","UTC","SGP4","2009-03-03T13:51:53.103744","14.32469040","0.00095140","86.3858","112.5702","29.9510","330.2245","0","U","24946","999","60045","0.00001901400000","0.00000071","0.0000000000000","7161.631","100.525","790.309","776.682","PAYLOAD","LARGE","US","1997-09-14","TTMTR","","680485","70152311","0 IRIDIUM 33","1 24946U 97051C   09062.57769796  .00000071  00000-0  19014-4 0  9997","2 24946 086.3858 112.5702 0009514 029.9510 330.2245 14.32469040600455"
"2.0","GENERATED VIA SPACE-TRACK.ORG API","2009-03-04T08:41:05","18 SPCS","IRIDIUM 33","1997-051C","EARTH","TEME","UTC","SGP4","2009-03-03T13:51:53.103744","14.32469040","0.00095140","86.3858","112.5702","29.9510","330.2245","0","U","24946","999","60045","0.00001901400000","0.00000071","0.0000000000000","7161.631","100.525","790.309","776.682","PAYLOAD","LARGE","US","1997-09-14","TTMTR","","681047","70174067","0 IRIDIUM 33","1 24946U 97051C   09062.57769796  .00000071  00000-0  19014-4 0  9997","2 24946 086.3858 112.5702 0009514 029.9510 330.2245 14.32469040600455"
"2.0","GENERATED VIA SPACE-TRACK.ORG API","2009-03-04T09:46:13","18 SPCS","COSMOS 2251","1993-036A","EARTH","TEME","UTC","SGP4","2009-03-04T06:32:55.301855","14.32043292","0.00246830","74.0405","337.9174","114.4181","245.9563","0","U","22675","999","82067","-0.00000206170000","-0.00000031","0.0000000000000","7163.050","100.555","802.596","767.235","PAYLOAD","LARGE","CIS","1993-06-16","PKMTR","","681140","70175438","0 COSMOS 2251","1 22675U 93036A   09063.27286229 -.00000031  00000-0 -20617-5 0  9996","2 22675 074.0405 337.9174 0024683 114.4181 245.9563 14.32043292820678"
"2.0","GENERATED VIA SPACE-TRACK.ORG API","2009-03-04T09:46:27","18 SPCS","IRIDIUM 33","1997-051C","EARTH","TEME","UTC","SGP4","2009-03-04T13:20:07.906847","14.32469205","0.00094120","86.3857","112.1615","27.2680","332.9018","0","U","24946","999","60059","0.00002089300000","0.00000076","0.0000000000000","7161.630","100.525","790.236","776.755","PAYLOAD","LARGE","US","1997-09-14","TTMTR","","681141","70175439","0 IRIDIUM 33","1 24946U 97051C   09063.55564707  .00000076  00000-0  20893-4 0  9993","2 24946 086.3857 112.1615 0009412 027.2680 332.9018 14.32469205600594"
"2.0","GENERATED VIA SPACE-TRACK.ORG API","2009-03-05T10:37:51","18 SPCS","COSMOS 2251","1993-036A","EARTH","TEME","UTC","SGP4","2009-03-05T06:01:15.934367","14.32043243","0.00246700","74.0405","336.1342","112.3196","248.0571","0","U","22675","999","82081","-0.00000419270000","-0.00000037","0.0000000000000","7163.050","100.555","802.587","767.244","PAYLOAD","LARGE","CIS","1993-06-16","PKMTR","","681674","70189487","0 COSMOS 2251","1 22675U 93036A   09064.25087887 -.00000037  00000-0 -41927-5 0  9997","2 22675 074.0405 336.1342 0024670 112.3196 248.0571 14.32043243820810"
"2.0","GENERATED VIA SPACE-TRACK.ORG API","2009-03-05T10:38:00","18 SPCS","IRIDIUM 33","1997-051C","EARTH","TEME","UTC","SGP4","2009-03-05T12:48:22.709087","14.32469340","0.00093250","86.3858","111.7529","24.4667","335.6973","0","U","24946","999","60073","0.00002200900000","0.00000079","0.0000000000000","7161.630","100.525","790.173","776.817","PAYLOAD","LARGE","US","1997-09-14","TTMTR","","681675","70189488","0 IRIDIUM 33","1 24946U 97051C   09064.53359617  .00000079  00000-0  22009-4 0  9998","2 24946 086.3858 111.7529 0009325 024.4667 335.6973 14.32469340600737"
"2.0","GENERATED VIA SPACE-TRACK.ORG API","2009-03-05T10:40:18","18 SPCS","IRIDIUM 33","1997-051C","EARTH","TEME","UTC","SGP4","2009-03-05T12:48:22.709087","14.32469340","0.00093250","86.3858","111.7529","24.4667","335.6973","0","U","24946","999","60073","0.00002200900000","0.00000079","0.0000000000000","7161.630","100.525","790.173","776.817","PAYLOAD","LARGE","US","1997-09-14","TTMTR","","681680","70189594","0 IRIDIUM 33","1 24946U 97051C   09064.53359617  .00000079  00000-0  22009-4 0  9998","2 24946 086.3858 111.7529 0009325 024.4667 335.6973 14.32469340600737"
"2.0","GENERATED VIA SPACE-TRACK.ORG API","2009-03-06T08:49:14","18 SPCS","IRIDIUM 33","1997-051C","EARTH","TEME","UTC","SGP4","2009-03-05T12:48:22.709087","14.32469340","0.00093250","86.3858","111.7529","24.4667","335.6973","0","U","24946","999","60073","0.00002200900000","0.00000079","0.0000000000000","7161.630","100.525","790.173","776.817","PAYLOAD","LARGE","US","1997-09-14","TTMTR","","682167","70202822","0 IRIDIUM 33","1 24946U 97051C   09064.53359617  .00000079  00000-0  22009-4 0  9998","2 24946 086.3858 111.7529 0009325 024.4667 335.6973 14.32469340600737"
"2.0","GENERATED VIA SPACE-TRACK.ORG API","2009-03-06T09:25:57","18 SPCS","COSMOS 2251","1993-036A","EARTH","TEME","UTC","SGP4","2009-03-06T05:29:36.590207","14.32043234","0.00246440","74.0404","334.3508","110.2575","250.1234","0","U","22675","999","82095","-0.00000465610000","-0.00000038","0.0000000000000","7163.050","100.555","802.568","767.263","PAYLOAD","LARGE","CIS","1993-06-16","PKMTR","","682218","70203562","0 COSMOS 2251","1 22675U 93036A   09065.22889572 -.00000038  00000-0 -46561-5 0  9996","2 22675 074.0404 334.3508 0024644 110.2575 250.1234 14.32043234820957"
"2.0","GENERATED VIA SPACE-TRACK.ORG API","2009-03-06T09:26:09","18 SPCS","IRIDIUM 33","1997-051C","EARTH","TEME","UTC","SGP4","2009-03-06T13:57:12.855455","14.32469415","0.00092220","86.3856","111.3150","21.4394","338.7183","0","U","24946","999","60088","0.00002105100000","0.00000077","0.0000000000000","7161.630","100.525","790.099","776.890","PAYLOAD","LARGE","US","1997-09-14","TTMTR","","682219","70203563","0 IRIDIUM 33","1 24946U 97051C   09065.58139879  .00000077  00000-0  21051-4 0  9994","2 24946 086.3856 111.3150 0009222 021.4394 338.7183 14.32469415600887"
"2.0","GENERATED VIA SPACE-TRACK.ORG API","2009-03-07T09:34:14","18 SPCS","IRIDIUM 33","1997-051C","EARTH","TEME","UTC","SGP4","2009-03-06T13:57:12.855455","14.32469415","0.00092220","86.3856","111.3150","21.4394","338.7183","0","U","24946","999","60088","0.00002105100000","0.00000077","0.0000000000000","7161.630","100.525","790.099","776.890","PAYLOAD","LARGE","US","1997-09-14","TTMTR","","682658","70217402","0 IRIDIUM 33","1 24946U 97051C   09065.58139879  .00000077  00000-0  21051-4 0  9994","2 24946 086.3856 111.3150 0009222 021.4394 338.7183 14.32469415600887"
"2.0","GENERATED VIA SPACE-TRACK.ORG API","2009-03-08T11:19:38","18 SPCS","IRIDIUM 33","1997-051C","EARTH","TEME","UTC","SGP4","2009-03-06T13:57:12.855455","14.32469415","0.00092220","86.3856","111.3150","21.4394","338.7183","0","U","24946","999","60088","0.00002105100000","0.00000077","0.0000000000000","7161.630","100.525","790.099","776.890","PAYLOAD","LARGE","US","1997-09-14","TTMTR","","682904","70229003","0 IRIDIUM 33","1 24946U 97051C   09065.58139879  .00000077  00000-0  21051-4 0  9994","2 24946 086.3856 111.3150 0009222 021.4394 338.7183 14.32469415600887"
"2.0","GENERATED VIA SPACE-TRACK.ORG API","2009-03-09T07:37:59","18 SPCS","COSMOS 2251","1993-036A","EARTH","TEME","UTC","SGP4","2009-03-09T05:35:14.270784","14.32042849","0.00246600","74.0409","328.8734","103.8316","256.5543","0","U","22675","999","82138","-0.00001627300000","-0.00000070","0.0000000000000","7163.052","100.555","802.581","767.253","PAYLOAD","LARGE","CIS","1993-06-16","PKMTR","","683242","70236010","0 COSMOS 2251","1 22675U 93036A   09068.23280406 -.00000070  00000-0 -16273-4 0  9993","2 22675 074.0409 328.8734 0024660 103.8316 256.5543 14.32042849821382"
"2.0","GENERATED VIA SPACE-TRACK.ORG API","2009-03-09T07:37:48","18 SPCS","IRIDIUM 33","1997-051C","EARTH","TEME","UTC","SGP4","2009-03-09T12:21:57.251807","14.32469218","0.00088830","86.3844","110.0886","13.2221","346.9166","0","U","24946","999","60130","0.00000497500000","0.00000033","0.0000000000000","7161.630","100.525","789.857","777.133","PAYLOAD","LARGE","US","1997-09-14","TTMTR","","683241","70236009","0 IRIDIUM 33","1 24946U 97051C   09068.51524597  .00000033  00000-0  49750-5 0  9994","2 24946 086.3844 110.0886 0008883 013.2221 346.9166 14.32469218601307"
"2.0","GENERATED VIA SPACE-TRACK.ORG API","2009-03-09T07:40:47","18 SPCS","IRIDIUM 33","1997-051C","EARTH","TEME","UTC","SGP4","2009-03-09T12:21:57.251807","14.32469218","0.00088830","86.3844","110.0886","13.2221","346.9166","0","U","24946","999","60130","0.00000497500000","0.00000033","0.0000000000000","7161.630","100.525","789.857","777.133","PAYLOAD","LARGE","US","1997-09-14","TTMTR","","683248","70236120","0 IRIDIUM 33","1 24946U 97051C   09068.51524597  .00000033  00000-0  49750-5 0  9994","2 24946 086.3844 110.0886 0008883 013.2221 346.9166 14.32469218601307"
